SILVERSAT               
1 66909U 98067XV  26041.67785886  .00128370  00000+0  13404-2 0  9992
2 66909  51.6264 202.2831 0002386 261.4942  98.5782 15.63566671 10951
ISS OBJECT XW           
1 66910U 98067XW  26041.63116221  .00099677  00000+0  11108-2 0  9997
2 66910  51.6255 202.7162 0001337 297.8968  62.1890 15.62020589 10949
ISS OBJECT XX           
1 66911U 98067XX  26041.77415351  .00153398  00000+0  15123-2 0  9991
2 66911  51.6242 201.4179 0003113 297.9049  62.1630 15.64924245 10963
ISS OBJECT XY           
1 66912U 98067XY  26041.63335210  .00072377  00000+0  90874-3 0  9996
2 66912  51.6289 203.4896 0000414 193.8928 166.2053 15.59046160 10920
ISS OBJECT XZ           
1 67683U 98067XZ  26042.24129136  .00044191  00000+0  78510-3 0  9994
2 67683  51.6305 203.0447 0010809 101.2058 259.0146 15.49682552   685
GXIBA-1                 
1 67684U 98067YA  26042.23942121  .00083345  00000+0  14334-2 0  9998
2 67684  51.6305 203.0337 0012690  95.6741 264.5695 15.50299598   685
CORAL                   
1 67685U 98067YB  26042.24088476  .00049657  00000+0  87609-3 0  9998
2 67685  51.6307 203.0427 0012750  96.4975 263.7466 15.49803407   688
ISS OBJECT YC           
1 67686U 98067YC  26041.91820275  .00050112  00000+0  88331-3 0  9994
2 67686  51.6308 204.6383 0007754  72.2403 287.9431 15.49880678   634
LEOPARD                 
1 67687U 98067YD  26042.24105188  .00046605  00000+0  82610-3 0  9997
2 67687  51.6310 203.0436 0007846  74.5029 285.6826 15.49753375   604
ISS OBJECT YE           
1 67688U 98067YE  26041.91827506  .00045422  00000+0  80313-3 0  9990
2 67688  51.6308 204.6388 0007727  72.3498 287.8334 15.49836472   551
